SHENZHOU-22             
1 66645U 25272A   25344.60082613  .00034963  00000+0  43761-3 0  9997
2 66645  41.4683  29.6917 0008768  13.0632 347.0432 15.59037498263570
COSMOS 2597 (RODNIK-S *)
1 66647U 25273A   25344.86254306  .00000037  00000+0  19641-3 0  9993
2 66647  82.4986 287.6147 0007929 293.6470  66.3777 12.41951296  1907
COSMOS 2598 (RODNIK-S *)
1 66648U 25273B   25344.85648270  .00000018  00000+0  60955-4 0  9994
2 66648  82.5033 287.6211 0007245 255.7215 104.3060 12.42861563  1907
COSMOS 2599 (RODNIK-S *)
1 66649U 25273C   25344.86596375  .00000065  00000+0  40265-3 0  9997
2 66649  82.5027 287.6285 0007892 302.6801  57.3516 12.41672321  1907
BEE-1000                
1 66650U 25274A   25344.74000617  .00002953  00000+0  29918-3 0  9996
2 66650  97.7386 271.9643 0010401 259.1230 100.8819 14.91649829  2108
2025-274B               
1 66651U 25274B   25344.73925397  .00006496  00000+0  64912-3 0  9996
2 66651  97.7379 271.9647 0010689 258.2038 101.7982 14.91772462  2100
2025-274C               
1 66652U 25274C   25344.67088569  .00003922  00000+0  39314-3 0  9990
2 66652  97.7385 271.9013 0010362 265.4734  94.5301 14.91882404  2096
2025-274D               
1 66653U 25274D   25344.73789281  .00004146  00000+0  41520-3 0  9998
2 66653  97.7384 271.9670 0011237 261.1444  98.8502 14.91887801  2106
JACK E                  
1 66654U 25274E   25344.66925963  .00004534  00000+0  45145-3 0  9998
2 66654  97.7385 271.9037 0011842 263.0926  96.8945 14.92062885  2098
2025-274F               
1 66655U 25274F   25344.60023870  .00000138  00000+0  19321-4 0  9993
2 66655  97.7323 271.8405 0004698  22.2473 337.8948 14.91412977  2082
2025-274G               
1 66656U 25274G   25344.53343602  .00004850  00000+0  48020-3 0  9996
2 66656  97.7383 271.7738 0012453 265.4546  94.5251 14.92251024  2075
SPIRONE                 
1 66657U 25274H   25344.79996382  .00004903  00000+0  48338-3 0  9995
2 66657  97.7383 272.0392 0010890 283.2877  76.7127 14.92433181  2119
