CCSDS_OMM_VERS = 2.0
CREATION_DATE  = 
ORIGINATOR     = 

OBJECT_NAME    = SHENZHOU-22
OBJECT_ID      = 2025-272A
CENTER_NAME    = EARTH
REF_FRAME      = TEME
TIME_SYSTEM    = UTC
MEAN_ELEMENT_THEORY = SGP/SGP4

EPOCH          = 2025-12-10T14:25:11.377632
MEAN_MOTION    = 15.59037498
ECCENTRICITY   = .00087682
INCLINATION    = 41.4683
RA_OF_ASC_NODE = 29.6917
ARG_OF_PERICENTER = 13.0632
MEAN_ANOMALY   = 347.0432

EPHEMERIS_TYPE = 0
CLASSIFICATION_TYPE = U
NORAD_CAT_ID   = 66645
ELEMENT_SET_NO = 999
REV_AT_EPOCH   = 26357
BSTAR          = .43760673E-3
MEAN_MOTION_DOT = .34963E-3
MEAN_MOTION_DDOT = 0

CCSDS_OMM_VERS = 2.0
CREATION_DATE  = 
ORIGINATOR     = 

OBJECT_NAME    = COSMOS 2597 (RODNIK-S 22)
OBJECT_ID      = 2025-273A
CENTER_NAME    = EARTH
REF_FRAME      = TEME
TIME_SYSTEM    = UTC
MEAN_ELEMENT_THEORY = SGP/SGP4

EPOCH          = 2025-12-10T20:42:03.720384
MEAN_MOTION    = 12.41951296
ECCENTRICITY   = .0007929
INCLINATION    = 82.4986
RA_OF_ASC_NODE = 287.6147
ARG_OF_PERICENTER = 293.6470
MEAN_ANOMALY   = 66.3777

EPHEMERIS_TYPE = 0
CLASSIFICATION_TYPE = U
NORAD_CAT_ID   = 66647
ELEMENT_SET_NO = 999
REV_AT_EPOCH   = 190
BSTAR          = .19641E-3
MEAN_MOTION_DOT = .37E-6
MEAN_MOTION_DDOT = 0

CCSDS_OMM_VERS = 2.0
CREATION_DATE  = 
ORIGINATOR     = 

OBJECT_NAME    = COSMOS 2598 (RODNIK-S 23)
OBJECT_ID      = 2025-273B
CENTER_NAME    = EARTH
REF_FRAME      = TEME
TIME_SYSTEM    = UTC
MEAN_ELEMENT_THEORY = SGP/SGP4

EPOCH          = 2025-12-10T20:33:20.105280
MEAN_MOTION    = 12.42861563
ECCENTRICITY   = .0007245
INCLINATION    = 82.5033
RA_OF_ASC_NODE = 287.6211
ARG_OF_PERICENTER = 255.7215
MEAN_ANOMALY   = 104.3060

EPHEMERIS_TYPE = 0
CLASSIFICATION_TYPE = U
NORAD_CAT_ID   = 66648
ELEMENT_SET_NO = 999
REV_AT_EPOCH   = 190
BSTAR          = .60955E-4
MEAN_MOTION_DOT = .18E-6
MEAN_MOTION_DDOT = 0

CCSDS_OMM_VERS = 2.0
CREATION_DATE  = 
ORIGINATOR     = 

OBJECT_NAME    = COSMOS 2599 (RODNIK-S 24)
OBJECT_ID      = 2025-273C
CENTER_NAME    = EARTH
REF_FRAME      = TEME
TIME_SYSTEM    = UTC
MEAN_ELEMENT_THEORY = SGP/SGP4

EPOCH          = 2025-12-10T20:46:59.268000
MEAN_MOTION    = 12.41672321
ECCENTRICITY   = .0007892
INCLINATION    = 82.5027
RA_OF_ASC_NODE = 287.6285
ARG_OF_PERICENTER = 302.6801
MEAN_ANOMALY   = 57.3516

EPHEMERIS_TYPE = 0
CLASSIFICATION_TYPE = U
NORAD_CAT_ID   = 66649
ELEMENT_SET_NO = 999
REV_AT_EPOCH   = 190
BSTAR          = .40265E-3
MEAN_MOTION_DOT = .65E-6
MEAN_MOTION_DDOT = 0

CCSDS_OMM_VERS = 2.0
CREATION_DATE  = 
ORIGINATOR     = 

OBJECT_NAME    = BEE-1000
OBJECT_ID      = 2025-274A
CENTER_NAME    = EARTH
REF_FRAME      = TEME
TIME_SYSTEM    = UTC
MEAN_ELEMENT_THEORY = SGP/SGP4

EPOCH          = 2025-12-10T17:45:36.533088
MEAN_MOTION    = 14.91649829
ECCENTRICITY   = .0010401
INCLINATION    = 97.7386
RA_OF_ASC_NODE = 271.9643
ARG_OF_PERICENTER = 259.1230
MEAN_ANOMALY   = 100.8819

EPHEMERIS_TYPE = 0
CLASSIFICATION_TYPE = U
NORAD_CAT_ID   = 66650
ELEMENT_SET_NO = 999
REV_AT_EPOCH   = 210
BSTAR          = .29918E-3
MEAN_MOTION_DOT = .2953E-4
MEAN_MOTION_DDOT = 0

CCSDS_OMM_VERS = 2.0
CREATION_DATE  = 
ORIGINATOR     = 

OBJECT_NAME    = 2025-274B
OBJECT_ID      = 2025-274B
CENTER_NAME    = EARTH
REF_FRAME      = TEME
TIME_SYSTEM    = UTC
MEAN_ELEMENT_THEORY = SGP/SGP4

EPOCH          = 2025-12-10T17:44:31.543008
MEAN_MOTION    = 14.91772462
ECCENTRICITY   = .0010689
INCLINATION    = 97.7379
RA_OF_ASC_NODE = 271.9647
ARG_OF_PERICENTER = 258.2038
MEAN_ANOMALY   = 101.7982

EPHEMERIS_TYPE = 0
CLASSIFICATION_TYPE = U
NORAD_CAT_ID   = 66651
ELEMENT_SET_NO = 999
REV_AT_EPOCH   = 210
BSTAR          = .64912E-3
MEAN_MOTION_DOT = .6496E-4
MEAN_MOTION_DDOT = 0

CCSDS_OMM_VERS = 2.0
CREATION_DATE  = 
ORIGINATOR     = 

OBJECT_NAME    = 2025-274C
OBJECT_ID      = 2025-274C
CENTER_NAME    = EARTH
REF_FRAME      = TEME
TIME_SYSTEM    = UTC
MEAN_ELEMENT_THEORY = SGP/SGP4

EPOCH          = 2025-12-10T16:06:04.523616
MEAN_MOTION    = 14.91882404
ECCENTRICITY   = .0010362
INCLINATION    = 97.7385
RA_OF_ASC_NODE = 271.9013
ARG_OF_PERICENTER = 265.4734
MEAN_ANOMALY   = 94.5301

EPHEMERIS_TYPE = 0
CLASSIFICATION_TYPE = U
NORAD_CAT_ID   = 66652
ELEMENT_SET_NO = 999
REV_AT_EPOCH   = 209
BSTAR          = .39314E-3
MEAN_MOTION_DOT = .3922E-4
MEAN_MOTION_DDOT = 0

CCSDS_OMM_VERS = 2.0
CREATION_DATE  = 
ORIGINATOR     = 

OBJECT_NAME    = 2025-274D
OBJECT_ID      = 2025-274D
CENTER_NAME    = EARTH
REF_FRAME      = TEME
TIME_SYSTEM    = UTC
MEAN_ELEMENT_THEORY = SGP/SGP4

EPOCH          = 2025-12-10T17:42:33.938784
MEAN_MOTION    = 14.91887801
ECCENTRICITY   = .0011237
INCLINATION    = 97.7384
RA_OF_ASC_NODE = 271.9670
ARG_OF_PERICENTER = 261.1444
MEAN_ANOMALY   = 98.8502

EPHEMERIS_TYPE = 0
CLASSIFICATION_TYPE = U
NORAD_CAT_ID   = 66653
ELEMENT_SET_NO = 999
REV_AT_EPOCH   = 210
BSTAR          = .4152E-3
MEAN_MOTION_DOT = .4146E-4
MEAN_MOTION_DDOT = 0

CCSDS_OMM_VERS = 2.0
CREATION_DATE  = 
ORIGINATOR     = 

OBJECT_NAME    = JACK E
OBJECT_ID      = 2025-274E
CENTER_NAME    = EARTH
REF_FRAME      = TEME
TIME_SYSTEM    = UTC
MEAN_ELEMENT_THEORY = SGP/SGP4

EPOCH          = 2025-12-10T16:03:44.032032
MEAN_MOTION    = 14.92062885
ECCENTRICITY   = .0011842
INCLINATION    = 97.7385
RA_OF_ASC_NODE = 271.9037
ARG_OF_PERICENTER = 263.0926
MEAN_ANOMALY   = 96.8945

EPHEMERIS_TYPE = 0
CLASSIFICATION_TYPE = U
NORAD_CAT_ID   = 66654
ELEMENT_SET_NO = 999
REV_AT_EPOCH   = 209
BSTAR          = .45145E-3
MEAN_MOTION_DOT = .4534E-4
MEAN_MOTION_DDOT = 0

CCSDS_OMM_VERS = 2.0
CREATION_DATE  = 
ORIGINATOR     = 

OBJECT_NAME    = 2025-274F
OBJECT_ID      = 2025-274F
CENTER_NAME    = EARTH
REF_FRAME      = TEME
TIME_SYSTEM    = UTC
MEAN_ELEMENT_THEORY = SGP/SGP4

EPOCH          = 2025-12-10T14:24:20.623680
MEAN_MOTION    = 14.91412977
ECCENTRICITY   = .0004698
INCLINATION    = 97.7323
RA_OF_ASC_NODE = 271.8405
ARG_OF_PERICENTER = 22.2473
MEAN_ANOMALY   = 337.8948

EPHEMERIS_TYPE = 0
CLASSIFICATION_TYPE = U
NORAD_CAT_ID   = 66655
ELEMENT_SET_NO = 999
REV_AT_EPOCH   = 208
BSTAR          = .19321E-4
MEAN_MOTION_DOT = .138E-5
MEAN_MOTION_DDOT = 0

CCSDS_OMM_VERS = 2.0
CREATION_DATE  = 
ORIGINATOR     = 

OBJECT_NAME    = 2025-274G
OBJECT_ID      = 2025-274G
CENTER_NAME    = EARTH
REF_FRAME      = TEME
TIME_SYSTEM    = UTC
MEAN_ELEMENT_THEORY = SGP/SGP4

EPOCH          = 2025-12-10T12:48:08.872128
MEAN_MOTION    = 14.92251024
ECCENTRICITY   = .0012453
INCLINATION    = 97.7383
RA_OF_ASC_NODE = 271.7738
ARG_OF_PERICENTER = 265.4546
MEAN_ANOMALY   = 94.5251

EPHEMERIS_TYPE = 0
CLASSIFICATION_TYPE = U
NORAD_CAT_ID   = 66656
ELEMENT_SET_NO = 999
REV_AT_EPOCH   = 207
BSTAR          = .4802E-3
MEAN_MOTION_DOT = .485E-4
MEAN_MOTION_DDOT = 0

CCSDS_OMM_VERS = 2.0
CREATION_DATE  = 
ORIGINATOR     = 

OBJECT_NAME    = SPIRONE
OBJECT_ID      = 2025-274H
CENTER_NAME    = EARTH
REF_FRAME      = TEME
TIME_SYSTEM    = UTC
MEAN_ELEMENT_THEORY = SGP/SGP4

EPOCH          = 2025-12-10T19:11:56.874048
MEAN_MOTION    = 14.92433181
ECCENTRICITY   = .001089
INCLINATION    = 97.7383
RA_OF_ASC_NODE = 272.0392
ARG_OF_PERICENTER = 283.2877
MEAN_ANOMALY   = 76.7127

EPHEMERIS_TYPE = 0
CLASSIFICATION_TYPE = U
NORAD_CAT_ID   = 66657
ELEMENT_SET_NO = 999
REV_AT_EPOCH   = 211
BSTAR          = .48338E-3
MEAN_MOTION_DOT = .4903E-4
MEAN_MOTION_DDOT = 0

